ONEWEB-0393             
1 50473U 21132E   23251.40463126  .00000079  00000+0  16930-3 0  9994
2 50473  87.9214 207.0676 0002098  72.4645 287.6715 13.17650702 86021
ONEWEB-0394             
1 50474U 21132F   23250.76717758  .00000021  00000+0  20834-4 0  9992
2 50474  87.9297 176.9668 0001843  74.3086 285.8250 13.18686501 88039
ONEWEB-0395             
1 50475U 21132G   23251.02128949 -.00000281  00000+0 -82873-3 0  9991
2 50475  87.8926 222.3460 0001976  74.3814 285.7531 13.11416586 84191
ONEWEB-0396             
1 50476U 21132H   23250.76084998 -.00000122  00000+0 -34206-3 0  9998
2 50476  87.9299 176.9602 0001522  81.3622 278.7682 13.18685566 88073
ONEWEB-0397             
1 50477U 21132J   23250.32034151  .00000156  00000+0  36209-3 0  9997
2 50477  87.9298 177.0482 0001578  75.3464 284.7843 13.18684964 87996
ONEWEB-0398             
1 50478U 21132K   23251.44729587  .00000575  00000+0  15870-2 0  9991
2 50478  87.8927 222.2556 0002257  68.3968 291.7401 13.11416372 84158
ONEWEB-0399             
1 50479U 21132L   23251.43455267 -.00000219  00000+0 -65402-3 0  9996
2 50479  87.8919 222.2693 0001858  91.8424 268.2917 13.11417663 84140
ONEWEB-0400             
1 50480U 21132M   23250.75452961  .00000058  00000+0  11437-3 0  9998
2 50480  87.9224 177.0013 0002168  71.0309 289.1058 13.18685420 88048
